start=new Date('2022-10-01T00:00:00.000Z').valueOf();
sats=[{"NORAD_CAT_ID":"53806","CLASSIFICATION_TYPE":"U","MEAN_ELEMENT_THEORY":"SGP4","LAUNCH_DATE":"2022-09-11","MEAN_ANOMALY":"247.0548","APOAPSIS":"350.384","INCLINATION":"53.2172","SEMIMAJOR_AXIS":"6727.655","RA_OF_ASC_NODE":"168.8045","COUNTRY_CODE":"US","PERIAPSIS":"348.655","MEAN_MOTION":"15.73284290","DECAY_DATE":null,"GP_ID":"213908343","RCS_SIZE":"LARGE","ECCENTRICITY":"0.00012850","MEAN_MOTION_DDOT":"0.0000000000000","EPHEMERIS_TYPE":"0","OBJECT_ID":"2022-111AK","PERIOD":"91.528","OBJECT_TYPE":"PAYLOAD","TLE_LINE1":"1 53806U 22111AK  22273.91667824 -.00018896  00000-0 -13004-3 0  9993","OBJECT_NAME":"STARLINK-4768","TLE_LINE2":"2 53806  53.2172 168.8045 0001285 107.3148 247.0548 15.73284290  1301","ELEMENT_SET_NO":"999","EPOCH":"2022-09-30T22:00:00.999936","BSTAR":"-0.00013004000000","CENTER_NAME":"EARTH","TIME_SYSTEM":"UTC","MEAN_MOTION_DOT":"-0.00018896","FILE":"3587966","SITE":"AFETR","REV_AT_EPOCH":"130","ARG_OF_PERICENTER":"107.3148","REF_FRAME":"TEME"},{"RA_OF_ASC_NODE":"200.0449","COUNTRY_CODE":"US","MEAN_MOTION":"15.73219204","PERIAPSIS":"348.994","RCS_SIZE":null,"DECAY_DATE":null,"GP_ID":"213909186","NORAD_CAT_ID":"53818","MEAN_ANOMALY":"197.2466","CLASSIFICATION_TYPE":"U","LAUNCH_DATE":"2022-09-19","MEAN_ELEMENT_THEORY":"SGP4","SEMIMAJOR_AXIS":"6727.840","INCLINATION":"53.2153","APOAPSIS":"350.417","BSTAR":"0.00010363000000","CENTER_NAME":"EARTH","FILE":"3587966","SITE":"AFETR","MEAN_MOTION_DOT":"0.00013960","TIME_SYSTEM":"UTC","REF_FRAME":"TEME","ARG_OF_PERICENTER":"80.3552","REV_AT_EPOCH":"130","ECCENTRICITY":"0.00010570","MEAN_MOTION_DDOT":"0.0000000000000","PERIOD":"91.532","OBJECT_ID":"2022-114A","OBJECT_TYPE":"PAYLOAD","EPHEMERIS_TYPE":"0","OBJECT_NAME":"STARLINK-4749","TLE_LINE1":"1 53818U 22114A   22273.91667824  .00013960  00000-0  10363-3 0  9999","EPOCH":"2022-09-30T22:00:00.999936","TLE_LINE2":"2 53818  53.2153 200.0449 0001057  80.3552 197.2466 15.73219204  1304","ELEMENT_SET_NO":"999"},{"ECCENTRICITY":"0.00003390","MEAN_MOTION_DDOT":"0.0000000000000","EPHEMERIS_TYPE":"0","PERIOD":"91.529","OBJECT_ID":"2022-114B","OBJECT_TYPE":"PAYLOAD","TLE_LINE1":"1 53819U 22114B   22273.91667824 -.00083674  00000-0 -59608-3 0  9996","OBJECT_NAME":"STARLINK-4738","TLE_LINE2":"2 53819  53.2149 200.0379 0000339 305.4945 335.0787 15.73265538  1300","ELEMENT_SET_NO":"999","EPOCH":"2022-09-30T22:00:00.999936","BSTAR":"-0.00059608000000","CENTER_NAME":"EARTH","TIME_SYSTEM":"UTC","MEAN_MOTION_DOT":"-0.00083674","FILE":"3587966","SITE":"AFETR","REV_AT_EPOCH":"130","ARG_OF_PERICENTER":"305.4945","REF_FRAME":"TEME","NORAD_CAT_ID":"53819","CLASSIFICATION_TYPE":"U","MEAN_ELEMENT_THEORY":"SGP4","LAUNCH_DATE":"2022-09-19","MEAN_ANOMALY":"335.0787","APOAPSIS":"349.801","INCLINATION":"53.2149","SEMIMAJOR_AXIS":"6727.708","RA_OF_ASC_NODE":"200.0379","COUNTRY_CODE":"US","PERIAPSIS":"349.345","MEAN_MOTION":"15.73265538","DECAY_DATE":null,"GP_ID":"213908760","RCS_SIZE":null},{"EPHEMERIS_TYPE":"0","PERIOD":"91.528","OBJECT_ID":"2022-114C","OBJECT_TYPE":"PAYLOAD","ECCENTRICITY":"0.00012100","MEAN_MOTION_DDOT":"0.0000000000000","ELEMENT_SET_NO":"999","TLE_LINE2":"2 53820  53.2151 200.0439 0001210  78.0374 200.1024 15.73282860  1303","EPOCH":"2022-09-30T22:00:00.999936","OBJECT_NAME":"STARLINK-4758","TLE_LINE1":"1 53820U 22114C   22273.91667824 -.00070532  00000-0 -50056-3 0  9995","CENTER_NAME":"EARTH","BSTAR":"-0.00050056000000","REV_AT_EPOCH":"130","REF_FRAME":"TEME","ARG_OF_PERICENTER":"78.0374","TIME_SYSTEM":"UTC","MEAN_MOTION_DOT":"-0.00070532","FILE":"3587966","SITE":"AFETR","CLASSIFICATION_TYPE":"U","MEAN_ELEMENT_THEORY":"SGP4","LAUNCH_DATE":"2022-09-19","MEAN_ANOMALY":"200.1024","NORAD_CAT_ID":"53820","APOAPSIS":"350.338","INCLINATION":"53.2151","SEMIMAJOR_AXIS":"6727.659","COUNTRY_CODE":"US","RA_OF_ASC_NODE":"200.0439","DECAY_DATE":null,"GP_ID":"213909332","RCS_SIZE":null,"PERIAPSIS":"348.710","MEAN_MOTION":"15.73282860"},{"NORAD_CAT_ID":"53821","LAUNCH_DATE":"2022-09-19","MEAN_ELEMENT_THEORY":"SGP4","CLASSIFICATION_TYPE":"U","MEAN_ANOMALY":"198.4485","INCLINATION":"53.2152","APOAPSIS":"350.367","SEMIMAJOR_AXIS":"6727.710","RA_OF_ASC_NODE":"200.0395","COUNTRY_CODE":"US","PERIAPSIS":"348.782","MEAN_MOTION":"15.73265096","GP_ID":"213908592","DECAY_DATE":null,"RCS_SIZE":null,"MEAN_MOTION_DDOT":"0.0000000000000","ECCENTRICITY":"0.00011780","EPHEMERIS_TYPE":"0","OBJECT_TYPE":"PAYLOAD","PERIOD":"91.529","OBJECT_ID":"2022-114D","OBJECT_NAME":"STARLINK-4752","TLE_LINE1":"1 53821U 22114D   22273.91667824 -.00058416  00000-0 -41354-3 0  9994","TLE_LINE2":"2 53821  53.2152 200.0395 0001178  81.5470 198.4485 15.73265096  1307","ELEMENT_SET_NO":"999","EPOCH":"2022-09-30T22:00:00.999936","BSTAR":"-0.00041354000000","CENTER_NAME":"EARTH","MEAN_MOTION_DOT":"-0.00058416","TIME_SYSTEM":"UTC","SITE":"AFETR","FILE":"3587966","REV_AT_EPOCH":"130","ARG_OF_PERICENTER":"81.5470","REF_FRAME":"TEME"},{"MEAN_MOTION_DDOT":"0.0000115050000","ECCENTRICITY":"0.00577070","EPHEMERIS_TYPE":"0","OBJECT_TYPE":"PAYLOAD","PERIOD":"89.602","OBJECT_ID":"2022-114E","OBJECT_NAME":"STARLINK-4713","TLE_LINE1":"1 53822U 22114E   22273.80818227  .00714459  11505-4  69941-3 0  9990","TLE_LINE2":"2 53822  53.2135 199.1370 0057707  87.9176 272.8466 16.07108227  2994","ELEMENT_SET_NO":"999","EPOCH":"2022-09-30T19:23:46.948128","BSTAR":"0.00069941000000","CENTER_NAME":"EARTH","TIME_SYSTEM":"UTC","MEAN_MOTION_DOT":"0.00714459","SITE":"AFETR","FILE":"3587966","REV_AT_EPOCH":"299","REF_FRAME":"TEME","ARG_OF_PERICENTER":"87.9176","NORAD_CAT_ID":"53822","LAUNCH_DATE":"2022-09-19","MEAN_ELEMENT_THEORY":"SGP4","CLASSIFICATION_TYPE":"U","MEAN_ANOMALY":"272.8466","APOAPSIS":"293.067","INCLINATION":"53.2135","SEMIMAJOR_AXIS":"6632.925","RA_OF_ASC_NODE":"199.1370","COUNTRY_CODE":"US","PERIAPSIS":"216.513","MEAN_MOTION":"16.07108227","GP_ID":"213908930","DECAY_DATE":null,"RCS_SIZE":null},{"EPOCH":"2022-09-30T22:00:00.999936","TLE_LINE2":"2 53823  53.2139 199.2727 0018518  83.5759 207.5432 15.87981317  1300","ELEMENT_SET_NO":"999","TLE_LINE1":"1 53823U 22114F   22273.91667824  .00152781  19324-4  55524-3 0  9991","OBJECT_NAME":"STARLINK-4748","PERIOD":"90.681","OBJECT_ID":"2022-114F","OBJECT_TYPE":"PAYLOAD","EPHEMERIS_TYPE":"0","ECCENTRICITY":"0.00185180","MEAN_MOTION_DDOT":"0.0000193240000","REF_FRAME":"TEME","ARG_OF_PERICENTER":"83.5759","REV_AT_EPOCH":"130","FILE":"3587966","SITE":"AFETR","TIME_SYSTEM":"UTC","MEAN_MOTION_DOT":"0.00152781","CENTER_NAME":"EARTH","BSTAR":"0.00055524000000","SEMIMAJOR_AXIS":"6686.080","INCLINATION":"53.2139","APOAPSIS":"320.326","MEAN_ANOMALY":"207.5432","CLASSIFICATION_TYPE":"U","LAUNCH_DATE":"2022-09-19","MEAN_ELEMENT_THEORY":"SGP4","NORAD_CAT_ID":"53823","RCS_SIZE":null,"DECAY_DATE":null,"GP_ID":"213908345","MEAN_MOTION":"15.87981317","PERIAPSIS":"295.564","COUNTRY_CODE":"US","RA_OF_ASC_NODE":"199.2727"},{"MEAN_MOTION_DOT":"-0.00065405","TIME_SYSTEM":"UTC","SITE":"AFETR","FILE":"3587966","REV_AT_EPOCH":"130","REF_FRAME":"TEME","ARG_OF_PERICENTER":"86.7000","BSTAR":"-0.00046392000000","CENTER_NAME":"EARTH","TLE_LINE1":"1 53824U 22114G   22273.91667824 -.00065405  00000-0 -46392-3 0  9990","OBJECT_NAME":"STARLINK-4757","TLE_LINE2":"2 53824  53.2168 200.0415 0001244  86.7000 195.0544 15.73265233  1302","ELEMENT_SET_NO":"999","EPOCH":"2022-09-30T22:00:00.999936","MEAN_MOTION_DDOT":"0.0000000000000","ECCENTRICITY":"0.00012440","EPHEMERIS_TYPE":"0","OBJECT_TYPE":"PAYLOAD","PERIOD":"91.529","OBJECT_ID":"2022-114G","PERIAPSIS":"348.737","MEAN_MOTION":"15.73265233","GP_ID":"213909076","DECAY_DATE":null,"RCS_SIZE":null,"RA_OF_ASC_NODE":"200.0415","COUNTRY_CODE":"US","INCLINATION":"53.2168","APOAPSIS":"350.411","SEMIMAJOR_AXIS":"6727.709","NORAD_CAT_ID":"53824","MEAN_ELEMENT_THEORY":"SGP4","LAUNCH_DATE":"2022-09-19","CLASSIFICATION_TYPE":"U","MEAN_ANOMALY":"195.0544"},{"NORAD_CAT_ID":"53825","MEAN_ANOMALY":"215.8612","CLASSIFICATION_TYPE":"U","MEAN_ELEMENT_THEORY":"SGP4","LAUNCH_DATE":"2022-09-19","SEMIMAJOR_AXIS":"6727.883","INCLINATION":"53.2154","APOAPSIS":"350.455","RA_OF_ASC_NODE":"200.0381","COUNTRY_CODE":"US","MEAN_MOTION":"15.73204241","PERIAPSIS":"349.041","RCS_SIZE":null,"DECAY_DATE":null,"GP_ID":"213908177","ECCENTRICITY":"0.00010510","MEAN_MOTION_DDOT":"0.0000000000000","OBJECT_ID":"2022-114H","PERIOD":"91.533","OBJECT_TYPE":"PAYLOAD","EPHEMERIS_TYPE":"0","TLE_LINE1":"1 53825U 22114H   22273.91667824  .00051958  00000-0  37227-3 0  9994","OBJECT_NAME":"STARLINK-4751","EPOCH":"2022-09-30T22:00:00.999936","TLE_LINE2":"2 53825  53.2154 200.0381 0001051  65.3051 215.8612 15.73204241  1304","ELEMENT_SET_NO":"999","BSTAR":"0.00037227000000","CENTER_NAME":"EARTH","FILE":"3587966","SITE":"AFETR","MEAN_MOTION_DOT":"0.00051958","TIME_SYSTEM":"UTC","ARG_OF_PERICENTER":"65.3051","REF_FRAME":"TEME","REV_AT_EPOCH":"130"},{"FILE":"3587966","SITE":"AFETR","TIME_SYSTEM":"UTC","MEAN_MOTION_DOT":"-0.00057564","REF_FRAME":"TEME","ARG_OF_PERICENTER":"90.2305","REV_AT_EPOCH":"130","BSTAR":"-0.00040743000000","CENTER_NAME":"EARTH","OBJECT_NAME":"STARLINK-4756","TLE_LINE1":"1 53826U 22114J   22273.91667824 -.00057564  00000-0 -40743-3 0  9993","EPOCH":"2022-09-30T22:00:00.999936","TLE_LINE2":"2 53826  53.2154 200.0324 0001208  90.2305 193.9545 15.73263091  1304","ELEMENT_SET_NO":"999","ECCENTRICITY":"0.00012080","MEAN_MOTION_DDOT":"0.0000000000000","PERIOD":"91.530","OBJECT_ID":"2022-114J","OBJECT_TYPE":"PAYLOAD","EPHEMERIS_TYPE":"0","MEAN_MOTION":"15.73263091","PERIAPSIS":"348.768","RCS_SIZE":null,"DECAY_DATE":null,"GP_ID":"213909187","RA_OF_ASC_NODE":"200.0324","COUNTRY_CODE":"US","SEMIMAJOR_AXIS":"6727.715","INCLINATION":"53.2154","APOAPSIS":"350.393","NORAD_CAT_ID":"53826","MEAN_ANOMALY":"193.9545","CLASSIFICATION_TYPE":"U","MEAN_ELEMENT_THEORY":"SGP4","LAUNCH_DATE":"2022-09-19"}];
